{
  "type": "FeatureCollection",
  "features": [
    {
      "type": "Feature",
      "properties": {
        "ชื่อเล่นเจ้าบ้าน": "ลุงชัช-ป้าแหม่ม",
        "ชื่อ-สกุลจริง": "",
        "หมู่บ้าน/ชุมชน": "ม.๘ บ.ขุนพัง ต.หินตก อ.ร่อนพิบูลย์ จ.นครศรีธรรมราช",
        "ตำบล": "",
        "ตำแหน่งทางสังคม": "ลูกบ้าน",
        "ตำแหน่งทางสังคมอื่นๆ": "",
        "ระดับการเข้าสังคม": "เป็นกลาง/พบปะตามโอกาส",
        "การค้าขาย": "ขายของตามฤดูกาล",
        "การค้าขายอื่นๆ": "",
        "แหล่งอาหาร": "",
        "แหล่งอาหารอื่นๆ": "",
        "จุดสังเกตบ้าน": "",
        "เบอร์โทร": "",
        "วันที่สำรวจ": "07/12/2026",
        "ผู้สำรวจ": "ไอ้บ่าวปาด",
        "ระดับความเร่งด่วนในการติดตาม": "ปานกลาง",
        "หมายเหตุ": "้้เด้",
        "รูปบ้าน/บริเวณบ้าน": "C:\\fakepath\\Backgroud_CCOC.jpg,/images/freestanding/7ad93eac-9387-46f5-92cf-74c64d01b35f_Backgroud_CCOC.jpg",
        "แหล่งอาหารในพื้นที่": "ซื้อจากร้านชำในหมู่บ้าน,ผักสวนครัวหน้าบ้าน",
        "ระดับความไว้วางใจ/ความสัมพันธ์กับทีมสำรวจ": "คุ้นเคย/ให้ข้อมูลได้"
      },
      "geometry": {
        "type": "Point",
        "coordinates": [
          99.8357258377045,
          8.261943812482855
        ]
      },
      "id": "0"
    }
  ]
}