{"type":"FeatureCollection","name":"banana-farms-sample","features":[{"type":"Feature","properties":{"farm_id":"BF-0001","grower_id":"BG-0001","province":"นครศรีธรรมราช","amphoe":"เมืองนครศรีธรรมราช","tambon":"ท่าวัง","area_rai":12.5,"status":"active"},"geometry":{"type":"Polygon","coordinates":[[[99.9630,8.4300],[99.9660,8.4300],[99.9660,8.4330],[99.9630,8.4330],[99.9630,8.4300]]]}},{"type":"Feature","properties":{"farm_id":"BF-0002","grower_id":"BG-0002","province":"นครศรีธรรมราช","amphoe":"พรหมคีรี","tambon":"พรหมโลก","area_rai":8.0,"status":"active"},"geometry":{"type":"Polygon","coordinates":[[[99.8250,8.5350],[99.8280,8.5350],[99.8280,8.5380],[99.8250,8.5380],[99.8250,8.5350]]]}}]}